HIMAWARI-8              
1 40267U 14060A   24260.63729909 -.00000284  00000+0  00000+0 0  9992
2 40267   0.0286 209.3033 0000880 329.2371 187.6145  1.00269977 36462
